<!doctype html>

<html>

<head>

<title>TLE for NORAD Catalog Number 44254</title>

</head>

<body>

<pre>
STARLINK-32             
1 44254U 19029V   19302.18144943  .00001641  00000-0  13214-3 0  9995
2 44254  52.9986 182.5791 0002252 103.3067 256.8172 15.05483896 23919

</pre>
	
</body>

</html>
